{
  "type": "FeatureCollection",
  "features": [
    {
      "type": "Feature",
      "properties": {
        "norad_id": 37528,
        "name": "COSMOS 2251 DEB",
        "group": "cosmos-2251-debris",
        "lat": 69.38221195724665,
        "lon": -89.47838657632835,
        "alt_km": 731.8424216038302,
        "timestamp": "2025-12-03T04:52:30.036552+00:00",
        "meta_object_name": "COSMOS 2251 DEB",
        "meta_object_id": "1993-036BNH",
        "meta_epoch": "2025-12-01T04:23:44.422656",
        "meta_mean_motion": 14.50451173,
        "meta_eccentricity": 0.0020905,
        "meta_inclination": 74.0362,
        "meta_ra_of_asc_node": 143.8539,
        "meta_arg_of_pericenter": 293.085,
        "meta_mean_anomaly": 66.8106,
        "meta_ephemeris_type": 0,
        "meta_classification_type": "U",
        "meta_norad_cat_id": 37528,
        "meta_element_set_no": 999,
        "meta_rev_at_epoch": 85763,
        "meta_bstar": 0.0005005,
        "meta_mean_motion_dot": 1.935e-05,
        "meta_mean_motion_ddot": 0,
        "tle_line1": "1 37528U 93036BNH 25335.18315304  .00001935  00000+0  50050-3 0  9999",
        "tle_line2": "2 37528  74.0362 143.8539 0020905 293.0850  66.8106 14.50451173857632"
      },
      "geometry": {
        "type": "Point",
        "coordinates": [
          -89.47838657632835,
          69.38221195724665
        ]
      }
    },
    {
      "type": "Feature",
      "properties": {
        "norad_id": 37530,
        "name": "COSMOS 2251 DEB",
        "group": "cosmos-2251-debris",
        "lat": -20.173205519638167,
        "lon": 177.14667960798755,
        "alt_km": 796.4502254915569,
        "timestamp": "2025-12-03T04:52:30.036572+00:00",
        "meta_object_name": "COSMOS 2251 DEB",
        "meta_object_id": "1993-036BNK",
        "meta_epoch": "2025-11-30T19:50:14.646624",
        "meta_mean_motion": 14.34478642,
        "meta_eccentricity": 0.00255427,
        "meta_inclination": 74.0356,
        "meta_ra_of_asc_node": 355.4602,
        "meta_arg_of_pericenter": 61.4891,
        "meta_mean_anomaly": 111.2815,
        "meta_ephemeris_type": 0,
        "meta_classification_type": "U",
        "meta_norad_cat_id": 37530,
        "meta_element_set_no": 999,
        "meta_rev_at_epoch": 85061,
        "meta_bstar": 0.00021143929,
        "meta_mean_motion_dot": 5.72e-06,
        "meta_mean_motion_ddot": 0,
        "tle_line1": "1 37530U 93036BNK 25334.82655841  .00000572  00000+0  21144-3 0  9993",
        "tle_line2": "2 37530  74.0356 355.4602 0025542  61.4891 111.2815 14.34478642850619"
      },
      "geometry": {
        "type": "Point",
        "coordinates": [
          177.14667960798755,
          -20.173205519638167
        ]
      }
    },
    {
      "type": "Feature",
      "properties": {
        "norad_id": 37532,
        "name": "COSMOS 2251 DEB",
        "group": "cosmos-2251-debris",
        "lat": 64.63754779042746,
        "lon": -89.50031331416825,
        "alt_km": 744.937992618854,
        "timestamp": "2025-12-03T04:52:30.036585+00:00",
        "meta_object_name": "COSMOS 2251 DEB",
        "meta_object_id": "1993-036BNM",
        "meta_epoch": "2025-11-30T12:27:06.962976",
        "meta_mean_motion": 14.42376365,
        "meta_eccentricity": 0.00155828,
        "meta_inclination": 74.0506,
        "meta_ra_of_asc_node": 238.3668,
        "meta_arg_of_pericenter": 340.6914,
        "meta_mean_anomaly": 196.4661,
        "meta_ephemeris_type": 0,
        "meta_classification_type": "U",
        "meta_norad_cat_id": 37532,
        "meta_element_set_no": 999,
        "meta_rev_at_epoch": 84739,
        "meta_bstar": 0.00024978235,
        "meta_mean_motion_dot": 8e-06,
        "meta_mean_motion_ddot": 0,
        "tle_line1": "1 37532U 93036BNM 25334.51883059  .00000800  00000+0  24978-3 0  9997",
        "tle_line2": "2 37532  74.0506 238.3668 0015582 340.6914 196.4661 14.42376365847393"
      },
      "geometry": {
        "type": "Point",
        "coordinates": [
          -89.50031331416825,
          64.63754779042746
        ]
      }
    },
    {
      "type": "Feature",
      "properties": {
        "norad_id": 37533,
        "name": "COSMOS 2251 DEB",
        "group": "cosmos-2251-debris",
        "lat": 57.276902840119384,
        "lon": 2.2238053431063345,
        "alt_km": 943.5823307300543,
        "timestamp": "2025-12-03T04:52:30.036596+00:00",
        "meta_object_name": "COSMOS 2251 DEB",
        "meta_object_id": "1993-036BNN",
        "meta_epoch": "2025-12-01T21:41:44.265120",
        "meta_mean_motion": 14.12078799,
        "meta_eccentricity": 0.01585574,
        "meta_inclination": 74.0695,
        "meta_ra_of_asc_node": 210.9037,
        "meta_arg_of_pericenter": 269.9703,
        "meta_mean_anomaly": 88.3269,
        "meta_ephemeris_type": 0,
        "meta_classification_type": "U",
        "meta_norad_cat_id": 37533,
        "meta_element_set_no": 999,
        "meta_rev_at_epoch": 62768,
        "meta_bstar": 0.0015153786,
        "meta_mean_motion_dot": 3.103e-05,
        "meta_mean_motion_ddot": 0,
        "tle_line1": "1 37533U 93036BNN 25335.90398455  .00003103  00000+0  15154-2 0  9997",
        "tle_line2": "2 37533  74.0695 210.9037 0158557 269.9703  88.3269 14.12078799627686"
      },
      "geometry": {
        "type": "Point",
        "coordinates": [
          2.2238053431063345,
          57.276902840119384
        ]
      }
    },
    {
      "type": "Feature",
      "properties": {
        "norad_id": 37535,
        "name": "COSMOS 2251 DEB",
        "group": "cosmos-2251-debris",
        "lat": -68.12206481726841,
        "lon": -42.81947879921418,
        "alt_km": 687.0605579145777,
        "timestamp": "2025-12-03T04:52:30.036607+00:00",
        "meta_object_name": "COSMOS 2251 DEB",
        "meta_object_id": "1993-036BNQ",
        "meta_epoch": "2025-12-02T18:23:39.005088",
        "meta_mean_motion": 14.5832597,
        "meta_eccentricity": 0.0028279,
        "meta_inclination": 74.0242,
        "meta_ra_of_asc_node": 92.4973,
        "meta_arg_of_pericenter": 232.6433,
        "meta_mean_anomaly": 250.324,
        "meta_ephemeris_type": 0,
        "meta_classification_type": "U",
        "meta_norad_cat_id": 37535,
        "meta_element_set_no": 999,
        "meta_rev_at_epoch": 85179,
        "meta_bstar": 0.0012368,
        "meta_mean_motion_dot": 5.729e-05,
        "meta_mean_motion_ddot": 0,
        "tle_line1": "1 37535U 93036BNQ 25336.76642367  .00005729  00000+0  12368-2 0  9998",
        "tle_line2": "2 37535  74.0242  92.4973 0028279 232.6433 250.3240 14.58325970851799"
      },
      "geometry": {
        "type": "Point",
        "coordinates": [
          -42.81947879921418,
          -68.12206481726841
        ]
      }
    },
    {
      "type": "Feature",
      "properties": {
        "norad_id": 37537,
        "name": "COSMOS 2251 DEB",
        "group": "cosmos-2251-debris",
        "lat": 72.65745361389469,
        "lon": -10.646964471345417,
        "alt_km": 725.515293610174,
        "timestamp": "2025-12-03T04:52:30.036617+00:00",
        "meta_object_name": "COSMOS 2251 DEB",
        "meta_object_id": "1993-036BNS",
        "meta_epoch": "2025-12-02T05:06:31.670784",
        "meta_mean_motion": 14.37465624,
        "meta_eccentricity": 0.0049967,
        "meta_inclination": 74.0119,
        "meta_ra_of_asc_node": 284.5266,
        "meta_arg_of_pericenter": 67.5686,
        "meta_mean_anomaly": 293.0749,
        "meta_ephemeris_type": 0,
        "meta_classification_type": "U",
        "meta_norad_cat_id": 37537,
        "meta_element_set_no": 999,
        "meta_rev_at_epoch": 84882,
        "meta_bstar": 0.00030745,
        "meta_mean_motion_dot": 9.07e-06,
        "meta_mean_motion_ddot": 0,
        "tle_line1": "1 37537U 93036BNS 25336.21286656  .00000907  00000+0  30745-3 0  9998",
        "tle_line2": "2 37537  74.0119 284.5266 0049967  67.5686 293.0749 14.37465624848821"
      },
      "geometry": {
        "type": "Point",
        "coordinates": [
          -10.646964471345417,
          72.65745361389469
        ]
      }
    },
    {
      "type": "Feature",
      "properties": {
        "norad_id": 37546,
        "name": "COSMOS 2251 DEB",
        "group": "cosmos-2251-debris",
        "lat": 41.794337149962146,
        "lon": -78.03010771863619,
        "alt_km": 621.2056422657024,
        "timestamp": "2025-12-03T04:52:30.036628+00:00",
        "meta_object_name": "COSMOS 2251 DEB",
        "meta_object_id": "1993-036BPB",
        "meta_epoch": "2025-12-01T01:57:48.654432",
        "meta_mean_motion": 14.7972634,
        "meta_eccentricity": 0.00071974,
        "meta_inclination": 74.0208,
        "meta_ra_of_asc_node": 120.9905,
        "meta_arg_of_pericenter": 150.0376,
        "meta_mean_anomaly": 210.1213,
        "meta_ephemeris_type": 0,
        "meta_classification_type": "U",
        "meta_norad_cat_id": 37546,
        "meta_element_set_no": 999,
        "meta_rev_at_epoch": 65715,
        "meta_bstar": 0.0028528218,
        "meta_mean_motion_dot": 0.0002149,
        "meta_mean_motion_ddot": 0,
        "tle_line1": "1 37546U 93036BPB 25335.08181313  .00021490  00000+0  28528-2 0  9991",
        "tle_line2": "2 37546  74.0208 120.9905 0007197 150.0376 210.1213 14.79726340657157"
      },
      "geometry": {
        "type": "Point",
        "coordinates": [
          -78.03010771863619,
          41.794337149962146
        ]
      }
    }
  ]
}